ALOS (DAICHI)           
1 28931U 06002A   25351.73419158  .00001110  00000+0  19545-3 0  9994
2 28931  98.1098 303.1864 0001361 113.5739 246.5610 14.69501788 61443
H-2A R/B                
1 28932U 06002B   25360.85632045  .00010828  00000+0  56452-3 0  9994
2 28932  98.2326 136.7610 0054827 128.7130 231.9020 15.14853542 83408
RESURS-DK 1             
1 29228U 06021A   25360.58911125  .00003008  00000+0  17973-3 0  9990
2 29228  69.9336  66.0447 0006959 246.6774 113.3659 15.12237827 76473
CZ-4B R/B               
1 29507U 06046C   25360.63075654  .00004836  00000+0  25159-3 0  9996
2 29507  97.5713  40.7310 0034492 158.2453 202.0254 15.16008786 48977
CZ-2C R/B               
1 31114U 07010B   25360.59785145  .00000165  00000+0  94651-4 0  9998
2 31114  98.3975 112.5514 0059668 145.9222 214.5809 14.20215374969340
COSMO-SKYMED 1          
1 31598U 07023A   25360.83600075  .00003550  00000+0  32288-3 0  9991
2 31598  97.8838 186.3284 0001124  77.6556 282.4790 14.95868511  4012
COSMOS 2428             
1 31792U 07029A   25360.40232861  .00000235  00000+0  15172-3 0  9990
2 31792  70.9369 357.1933 0004448   4.4812 355.6348 14.12895587953740
SL-16 R/B               
1 31793U 07029B   25360.80587147  .00000299  00000+0  17974-3 0  9997
2 31793  70.9766 325.5888 0001889 266.5879 121.3656 14.14819900955064
KORONAS-FOTON           
1 33504U 09003A   25360.45279102  .00008790  00000+0  20852-3 0  9996
2 33504  82.4311 351.8926 0013231  65.8665 294.3963 15.41453753934455
CZ-2C R/B               
1 37731U 11030B   25360.84895558  .00001461  00000+0  19157-3 0  9991
2 37731  97.8433 314.6450 0051633 226.4325 187.5192 14.80944132779318
H-2A R/B                
1 38341U 12025E   25360.83383514  .00003889  00000+0  35919-3 0  9997
2 38341  98.4617 317.1528 0044685 188.9877 171.0546 14.94534161737333
SHIJIAN-16 (SJ-16)      
1 39358U 13057A   25360.88484507  .00004574  00000+0  45202-3 0  9999
2 39358  74.9739 322.8886 0018014 287.3882  72.5336 14.92032830660648
